{
  "norad_id": 66845,
  "name": "STARLINK-36068",
  "history": [
    {
      "epoch": "2026-03-28T22:41:41.797824",
      "apogee_km": 573.8250317447273,
      "perigee_km": 570.2484723319294,
      "latitude_deg": 59.50465135807146,
      "longitude_deg": -124.72022464009933,
      "semi_major_axis_km": 6950.1737520383285,
      "eccentricity": 0.0002573,
      "inclination_deg": 70.0005,
      "raan_deg": 285.7617,
      "arg_perigee_deg": 269.1903,
      "mean_anomaly_deg": 90.8961,
      "mean_motion_rev_day": 14.98336189
    },
    {
      "epoch": "2026-03-28T22:41:41.798688",
      "apogee_km": 573.8248927412533,
      "perigee_km": 570.2486113354043,
      "latitude_deg": 59.5046572574618,
      "longitude_deg": -124.72022368013859,
      "semi_major_axis_km": 6950.1737520383285,
      "eccentricity": 0.00025728,
      "inclination_deg": 70.0005,
      "raan_deg": 285.7617,
      "arg_perigee_deg": 269.1903,
      "mean_anomaly_deg": 90.8961,
      "mean_motion_rev_day": 14.98336189
    }
  ]
}